{
  "type": "FeatureCollection",
  "features": [
    {
      "type": "Feature",
      "properties": {
        "norad_id": 63772,
        "name": "BIOMASS",
        "group": "resource",
        "lat": 41.978174694821156,
        "lon": 165.4450460757885,
        "alt_km": 664.8443529428187,
        "timestamp": "2025-12-13T18:50:04.086444+00:00",
        "meta_object_name": "BIOMASS",
        "meta_object_id": "2025-090A",
        "meta_epoch": "2025-12-13T05:33:02.031264",
        "meta_mean_motion": 14.67542273,
        "meta_eccentricity": 0.00011696,
        "meta_inclination": 98.07,
        "meta_ra_of_asc_node": 172.2338,
        "meta_arg_of_pericenter": 79.5708,
        "meta_mean_anomaly": 280.5629,
        "meta_ephemeris_type": 0,
        "meta_classification_type": "U",
        "meta_norad_cat_id": 63772,
        "meta_element_set_no": 999,
        "meta_rev_at_epoch": 3341,
        "meta_bstar": 0.00038300186,
        "meta_mean_motion_dot": 2.125e-05,
        "meta_mean_motion_ddot": 0,
        "tle_line1": "1 63772U 25090A   25347.23127351  .00002125  00000+0  38300-3 0  9992",
        "tle_line2": "2 63772  98.0700 172.2338 0001169  79.5708 280.5629 14.67542273 33414"
      },
      "geometry": {
        "type": "Point",
        "coordinates": [
          165.4450460757885,
          41.978174694821156
        ]
      }
    },
    {
      "type": "Feature",
      "properties": {
        "norad_id": 64694,
        "name": "GOSAT-GW (IBUKI GW)",
        "group": "resource",
        "lat": -70.52984547337286,
        "lon": 79.70537509883975,
        "alt_km": 677.1748780596545,
        "timestamp": "2025-12-13T18:50:04.086454+00:00",
        "meta_object_name": "GOSAT-GW (IBUKI GW)",
        "meta_object_id": "2025-141A",
        "meta_epoch": "2025-12-13T06:14:04.025184",
        "meta_mean_motion": 14.67560112,
        "meta_eccentricity": 0.00014914,
        "meta_inclination": 98.0422,
        "meta_ra_of_asc_node": 282.7634,
        "meta_arg_of_pericenter": 85.3866,
        "meta_mean_anomaly": 274.7509,
        "meta_ephemeris_type": 0,
        "meta_classification_type": "U",
        "meta_norad_cat_id": 64694,
        "meta_element_set_no": 999,
        "meta_rev_at_epoch": 2457,
        "meta_bstar": 0.00034305138,
        "meta_mean_motion_dot": 1.899e-05,
        "meta_mean_motion_ddot": 0,
        "tle_line1": "1 64694U 25141A   25347.25976881  .00001899  00000+0  34305-3 0  9993",
        "tle_line2": "2 64694  98.0422 282.7634 0001491  85.3866 274.7509 14.67560112 24574"
      },
      "geometry": {
        "type": "Point",
        "coordinates": [
          79.70537509883975,
          -70.52984547337286
        ]
      }
    },
    {
      "type": "Feature",
      "properties": {
        "norad_id": 64876,
        "name": "IONOSFERA-M 3",
        "group": "resource",
        "lat": 77.87877367760093,
        "lon": -95.03278415118635,
        "alt_km": 811.7047616335167,
        "timestamp": "2025-12-13T18:50:04.086465+00:00",
        "meta_object_name": "IONOSFERA-M 3",
        "meta_object_id": "2025-155A",
        "meta_epoch": "2025-12-13T06:37:38.557344",
        "meta_mean_motion": 14.21441229,
        "meta_eccentricity": 0.00022195,
        "meta_inclination": 98.5783,
        "meta_ra_of_asc_node": 309.127,
        "meta_arg_of_pericenter": 59.2679,
        "meta_mean_anomaly": 300.8717,
        "meta_ephemeris_type": 0,
        "meta_classification_type": "U",
        "meta_norad_cat_id": 64876,
        "meta_element_set_no": 999,
        "meta_rev_at_epoch": 1999,
        "meta_bstar": 8.6960294e-05,
        "meta_mean_motion_dot": 1.47e-06,
        "meta_mean_motion_ddot": 0,
        "tle_line1": "1 64876U 25155A   25347.27614071  .00000147  00000+0  86960-4 0  9992",
        "tle_line2": "2 64876  98.5783 309.1270 0002219  59.2679 300.8717 14.21441229 19991"
      },
      "geometry": {
        "type": "Point",
        "coordinates": [
          -95.03278415118635,
          77.87877367760093
        ]
      }
    },
    {
      "type": "Feature",
      "properties": {
        "norad_id": 64877,
        "name": "IONOSFERA-M 4",
        "group": "resource",
        "lat": -78.34580015684708,
        "lon": 82.50153917332024,
        "alt_km": 828.8703750902087,
        "timestamp": "2025-12-13T18:50:04.086476+00:00",
        "meta_object_name": "IONOSFERA-M 4",
        "meta_object_id": "2025-155B",
        "meta_epoch": "2025-12-13T07:28:08.226048",
        "meta_mean_motion": 14.21442454,
        "meta_eccentricity": 0.00015872,
        "meta_inclination": 98.5782,
        "meta_ra_of_asc_node": 309.0807,
        "meta_arg_of_pericenter": 63.0295,
        "meta_mean_anomaly": 297.1044,
        "meta_ephemeris_type": 0,
        "meta_classification_type": "U",
        "meta_norad_cat_id": 64877,
        "meta_element_set_no": 999,
        "meta_rev_at_epoch": 1999,
        "meta_bstar": 9.229153e-05,
        "meta_mean_motion_dot": 1.59e-06,
        "meta_mean_motion_ddot": 0,
        "tle_line1": "1 64877U 25155B   25347.31120632  .00000159  00000+0  92292-4 0  9991",
        "tle_line2": "2 64877  98.5782 309.0807 0001587  63.0295 297.1044 14.21442454 19992"
      },
      "geometry": {
        "type": "Point",
        "coordinates": [
          82.50153917332024,
          -78.34580015684708
        ]
      }
    },
    {
      "type": "Feature",
      "properties": {
        "norad_id": 64899,
        "name": "MICROCARB",
        "group": "resource",
        "lat": -65.71663379657942,
        "lon": -135.05501630438195,
        "alt_km": 664.9363029468113,
        "timestamp": "2025-12-13T18:50:04.086486+00:00",
        "meta_object_name": "MICROCARB",
        "meta_object_id": "2025-156A",
        "meta_epoch": "2025-12-13T04:39:59.514048",
        "meta_mean_motion": 14.72058192,
        "meta_eccentricity": 0.00171655,
        "meta_inclination": 98.0025,
        "meta_ra_of_asc_node": 62.5326,
        "meta_arg_of_pericenter": 143.354,
        "meta_mean_anomaly": 216.8845,
        "meta_ephemeris_type": 0,
        "meta_classification_type": "U",
        "meta_norad_cat_id": 64899,
        "meta_element_set_no": 999,
        "meta_rev_at_epoch": 2060,
        "meta_bstar": 0.00018626373,
        "meta_mean_motion_dot": 1.123e-05,
        "meta_mean_motion_ddot": 0,
        "tle_line1": "1 64899U 25156A   25347.19443882  .00001123  00000+0  18626-3 0  9997",
        "tle_line2": "2 64899  98.0025  62.5326 0017165 143.3540 216.8845 14.72058192 20607"
      },
      "geometry": {
        "type": "Point",
        "coordinates": [
          -135.05501630438195,
          -65.71663379657942
        ]
      }
    },
    {
      "type": "Feature",
      "properties": {
        "norad_id": 64900,
        "name": "CO3D 3",
        "group": "resource",
        "lat": 69.56417156123233,
        "lon": -95.31703022838245,
        "alt_km": 497.1574803675776,
        "timestamp": "2025-12-13T18:50:04.086497+00:00",
        "meta_object_name": "CO3D 3",
        "meta_object_id": "2025-156B",
        "meta_epoch": "2025-12-12T04:26:31.994592",
        "meta_mean_motion": 15.20160723,
        "meta_eccentricity": 0.00054722,
        "meta_inclination": 97.4437,
        "meta_ra_of_asc_node": 62.5626,
        "meta_arg_of_pericenter": 185.32,
        "meta_mean_anomaly": 174.7978,
        "meta_ephemeris_type": 0,
        "meta_classification_type": "U",
        "meta_norad_cat_id": 64900,
        "meta_element_set_no": 999,
        "meta_rev_at_epoch": 2112,
        "meta_bstar": 0.0011050076,
        "meta_mean_motion_dot": 0.0002391,
        "meta_mean_motion_ddot": 0,
        "tle_line1": "1 64900U 25156B   25346.18509253  .00023910  00000+0  11050-2 0  9994",
        "tle_line2": "2 64900  97.4437  62.5626 0005472 185.3200 174.7978 15.20160723 21125"
      },
      "geometry": {
        "type": "Point",
        "coordinates": [
          -95.31703022838245,
          69.56417156123233
        ]
      }
    },
    {
      "type": "Feature",
      "properties": {
        "norad_id": 64901,
        "name": "CO3D 4",
        "group": "resource",
        "lat": 70.15790358557416,
        "lon": -94.66103181079038,
        "alt_km": 498.8247003453662,
        "timestamp": "2025-12-13T18:50:04.086508+00:00",
        "meta_object_name": "CO3D 4",
        "meta_object_id": "2025-156C",
        "meta_epoch": "2025-12-12T15:30:13.261248",
        "meta_mean_motion": 15.20210943,
        "meta_eccentricity": 0.00010187,
        "meta_inclination": 97.4314,
        "meta_ra_of_asc_node": 63.0114,
        "meta_arg_of_pericenter": 237.4062,
        "meta_mean_anomaly": 122.7075,
        "meta_ephemeris_type": 0,
        "meta_classification_type": "U",
        "meta_norad_cat_id": 64901,
        "meta_element_set_no": 999,
        "meta_rev_at_epoch": 2119,
        "meta_bstar": 5.204221e-05,
        "meta_mean_motion_dot": 1.059e-05,
        "meta_mean_motion_ddot": 0,
        "tle_line1": "1 64901U 25156C   25346.64598682  .00001059  00000+0  52042-4 0  9998",
        "tle_line2": "2 64901  97.4314  63.0114 0001018 237.4062 122.7075 15.20210943 21193"
      },
      "geometry": {
        "type": "Point",
        "coordinates": [
          -94.66103181079038,
          70.15790358557416
        ]
      }
    }
  ]
}